{"fetched_at":"2026-07-16T06:42:33.601Z","source":"https://celestrak.org/NORAD/elements/gp.php?GROUP=oneweb&FORMAT=JSON","constellation":"oneweb","records":[{"OBJECT_NAME":"ONEWEB-0645","OBJECT_ID":"2023-029P","EPOCH":"2026-07-15T18:35:06.509760","CLASSIFICATION_TYPE":"U","MEAN_MOTION":13.19725946,"ECCENTRICITY":0.000204,"INCLINATION":87.9184,"RA_OF_ASC_NODE":299.2821,"ARG_OF_PERICENTER":114.3968,"MEAN_ANOMALY":245.7378,"EPHEMERIS_TYPE":0,"NORAD_CAT_ID":55809,"ELEMENT_SET_NO":999,"REV_AT_EPOCH":16267,"BSTAR":0.00011541408,"MEAN_MOTION_DOT":5.9e-7,"MEAN_MOTION_DDOT":0},{"OBJECT_NAME":"ONEWEB-0646","OBJECT_ID":"2023-029Q","EPOCH":"2026-07-15T19:00:06.799104","CLASSIFICATION_TYPE":"U","MEAN_MOTION":13.19726776,"ECCENTRICITY":0.00022757,"INCLINATION":87.9186,"RA_OF_ASC_NODE":299.2791,"ARG_OF_PERICENTER":105.0055,"MEAN_ANOMALY":255.1329,"EPHEMERIS_TYPE":0,"NORAD_CAT_ID":55810,"ELEMENT_SET_NO":999,"REV_AT_EPOCH":16266,"BSTAR":0.000078306575,"MEAN_MOTION_DOT":4.4e-7,"MEAN_MOTION_DDOT":0},{"OBJECT_NAME":"ONEWEB-0648","OBJECT_ID":"2023-029R","EPOCH":"2026-07-15T17:35:02.870304","CLASSIFICATION_TYPE":"U","MEAN_MOTION":13.14503462,"ECCENTRICITY":0.00023973,"INCLINATION":87.8968,"RA_OF_ASC_NODE":284.0164,"ARG_OF_PERICENTER":122.1002,"MEAN_ANOMALY":238.036,"EPHEMERIS_TYPE":0,"NORAD_CAT_ID":55811,"ELEMENT_SET_NO":999,"REV_AT_EPOCH":16314,"BSTAR":-0.00065142263,"MEAN_MOTION_DOT":-0.00000229,"MEAN_MOTION_DDOT":0},{"OBJECT_NAME":"ONEWEB-0649","OBJECT_ID":"2023-029S","EPOCH":"2026-07-15T19:36:29.822112","CLASSIFICATION_TYPE":"U","MEAN_MOTION":13.19726636,"ECCENTRICITY":0.00020745,"INCLINATION":87.9185,"RA_OF_ASC_NODE":299.2721,"ARG_OF_PERICENTER":108.7143,"MEAN_ANOMALY":251.4215,"EPHEMERIS_TYPE":0,"NORAD_CAT_ID":55812,"ELEMENT_SET_NO":999,"REV_AT_EPOCH":16270,"BSTAR":-0.00017435189,"MEAN_MOTION_DOT":-5.7e-7,"MEAN_MOTION_DDOT":0},{"OBJECT_NAME":"ONEWEB-0650","OBJECT_ID":"2023-029T","EPOCH":"2026-07-15T17:40:30.271872","CLASSIFICATION_TYPE":"U","MEAN_MOTION":13.19725962,"ECCENTRICITY":0.00024993,"INCLINATION":87.9184,"RA_OF_ASC_NODE":299.2905,"ARG_OF_PERICENTER":111.5921,"MEAN_ANOMALY":248.5478,"EPHEMERIS_TYPE":0,"NORAD_CAT_ID":55813,"ELEMENT_SET_NO":999,"REV_AT_EPOCH":16266,"BSTAR":-0.0001156442,"MEAN_MOTION_DOT":-3.3e-7,"MEAN_MOTION_DDOT":0},{"OBJECT_NAME":"ONEWEB-0652","OBJECT_ID":"2023-029U","EPOCH":"2026-07-15T17:07:38.973792","CLASSIFICATION_TYPE":"U","MEAN_MOTION":13.14502844,"ECCENTRICITY":0.00019914,"INCLINATION":87.897,"RA_OF_ASC_NODE":284.0268,"ARG_OF_PERICENTER":94.9052,"MEAN_ANOMALY":265.2305,"EPHEMERIS_TYPE":0,"NORAD_CAT_ID":55814,"ELEMENT_SET_NO":999,"REV_AT_EPOCH":16311,"BSTAR":0.00016043489,"MEAN_MOTION_DOT":7.2e-7,"MEAN_MOTION_DDOT":0},{"OBJECT_NAME":"ONEWEB-0653","OBJECT_ID":"2023-029V","EPOCH":"2026-07-15T18:34:25.341888","CLASSIFICATION_TYPE":"U","MEAN_MOTION":13.14501982,"ECCENTRICITY":0.00019569,"INCLINATION":87.8969,"RA_OF_ASC_NODE":284.0131,"ARG_OF_PERICENTER":100.0038,"MEAN_ANOMALY":260.1313,"EPHEMERIS_TYPE":0,"NORAD_CAT_ID":55815,"ELEMENT_SET_NO":999,"REV_AT_EPOCH":16315,"BSTAR":0.00053593436,"MEAN_MOTION_DOT":0.00000211,"MEAN_MOTION_DDOT":0},{"OBJECT_NAME":"ONEWEB-0654","OBJECT_ID":"2023-029W","EPOCH":"2026-07-15T16:37:57.626976","CLASSIFICATION_TYPE":"U","MEAN_MOTION":13.14501933,"ECCENTRICITY":0.00018021,"INCLINATION":87.8969,"RA_OF_ASC_NODE":284.0253,"ARG_OF_PERICENTER":91.1785,"MEAN_ANOMALY":268.9551,"EPHEMERIS_TYPE":0,"NORAD_CAT_ID":55816,"ELEMENT_SET_NO":999,"REV_AT_EPOCH":16316,"BSTAR":0.0005950451,"MEAN_MOTION_DOT":0.00000233,"MEAN_MOTION_DDOT":0},{"OBJECT_NAME":"ONEWEB-0656","OBJECT_ID":"2023-029X","EPOCH":"2026-07-15T18:21:10.963008","CLASSIFICATION_TYPE":"U","MEAN_MOTION":13.20770185,"ECCENTRICITY":0.00018701,"INCLINATION":87.9186,"RA_OF_ASC_NODE":268.7363,"ARG_OF_PERICENTER":86.8572,"MEAN_ANOMALY":273.2775,"EPHEMERIS_TYPE":0,"NORAD_CAT_ID":55817,"ELEMENT_SET_NO":999,"REV_AT_EPOCH":16492,"BSTAR":0.00023452129,"MEAN_MOTION_DOT":0.00000108,"MEAN_MOTION_DDOT":0},{"OBJECT_NAME":"ONEWEB-0657","OBJECT_ID":"2023-029Y","EPOCH":"2026-07-15T19:22:53.894208","CLASSIFICATION_TYPE":"U","MEAN_MOTION":13.19726941,"ECCENTRICITY":0.00022001,"INCLINATION":87.9184,"RA_OF_ASC_NODE":299.2751,"ARG_OF_PERICENTER":79.004,"MEAN_ANOMALY":281.134,"EPHEMERIS_TYPE":0,"NORAD_CAT_ID":55818,"ELEMENT_SET_NO":999,"REV_AT_EPOCH":16268,"BSTAR":-0.000075258434,"MEAN_MOTION_DOT":-1.7e-7,"MEAN_MOTION_DDOT":0},{"OBJECT_NAME":"ONEWEB-0658","OBJECT_ID":"2023-029Z","EPOCH":"2026-07-15T19:16:03.039744","CLASSIFICATION_TYPE":"U","MEAN_MOTION":13.19726449,"ECCENTRICITY":0.00023584,"INCLINATION":87.9193,"RA_OF_ASC_NODE":299.2541,"ARG_OF_PERICENTER":107.2101,"MEAN_ANOMALY":252.929,"EPHEMERIS_TYPE":0,"NORAD_CAT_ID":55819,"ELEMENT_SET_NO":999,"REV_AT_EPOCH":16269,"BSTAR":-0.00010661381,"MEAN_MOTION_DOT":-3e-7,"MEAN_MOTION_DDOT":0},{"OBJECT_NAME":"ONEWEB-0660","OBJECT_ID":"2023-029AA","EPOCH":"2026-07-15T17:55:35.833728","CLASSIFICATION_TYPE":"U","MEAN_MOTION":13.14502341,"ECCENTRICITY":0.00019434,"INCLINATION":87.8975,"RA_OF_ASC_NODE":284.0102,"ARG_OF_PERICENTER":109.2328,"MEAN_ANOMALY":250.9012,"EPHEMERIS_TYPE":0,"NORAD_CAT_ID":55820,"ELEMENT_SET_NO":999,"REV_AT_EPOCH":16315,"BSTAR":-0.00019006829,"MEAN_MOTION_DOT":-5.8e-7,"MEAN_MOTION_DDOT":0},{"OBJECT_NAME":"ONEWEB-0661","OBJECT_ID":"2023-029AB","EPOCH":"2026-07-15T18:45:50.889600","CLASSIFICATION_TYPE":"U","MEAN_MOTION":13.14502349,"ECCENTRICITY":0.00017924,"INCLINATION":87.8961,"RA_OF_ASC_NODE":284.0433,"ARG_OF_PERICENTER":107.2964,"MEAN_ANOMALY":252.8362,"EPHEMERIS_TYPE":0,"NORAD_CAT_ID":55821,"ELEMENT_SET_NO":999,"REV_AT_EPOCH":16314,"BSTAR":0.00057024907,"MEAN_MOTION_DOT":0.00000224,"MEAN_MOTION_DDOT":0},{"OBJECT_NAME":"ONEWEB-0662","OBJECT_ID":"2023-029AC","EPOCH":"2026-07-15T17:46:28.484544","CLASSIFICATION_TYPE":"U","MEAN_MOTION":13.14502783,"ECCENTRICITY":0.00019364,"INCLINATION":87.8959,"RA_OF_ASC_NODE":284.0569,"ARG_OF_PERICENTER":108.783,"MEAN_ANOMALY":251.351,"EPHEMERIS_TYPE":0,"NORAD_CAT_ID":55822,"ELEMENT_SET_NO":999,"REV_AT_EPOCH":16318,"BSTAR":-0.00050767046,"MEAN_MOTION_DOT":-0.00000175,"MEAN_MOTION_DDOT":0},{"OBJECT_NAME":"ONEWEB-0663","OBJECT_ID":"2023-029AD","EPOCH":"2026-07-15T04:33:59.310720","CLASSIFICATION_TYPE":"U","MEAN_MOTION":13.20871776,"ECCENTRICITY":0.00021948,"INCLINATION":87.919,"RA_OF_ASC_NODE":268.9216,"ARG_OF_PERICENTER":110.8769,"MEAN_ANOMALY":249.26,"EPHEMERIS_TYPE":0,"NORAD_CAT_ID":55823,"ELEMENT_SET_NO":999,"REV_AT_EPOCH":16484,"BSTAR":0.000047675518,"MEAN_MOTION_DOT":3.2e-7,"MEAN_MOTION_DDOT":0},{"OBJECT_NAME":"ONEWEB-0664","OBJECT_ID":"2023-029AE","EPOCH":"2026-07-15T18:01:48.411264","CLASSIFICATION_TYPE":"U","MEAN_MOTION":13.20772245,"ECCENTRICITY":0.00015949,"INCLINATION":87.9174,"RA_OF_ASC_NODE":268.7876,"ARG_OF_PERICENTER":103.5601,"MEAN_ANOMALY":256.571,"EPHEMERIS_TYPE":0,"NORAD_CAT_ID":55824,"ELEMENT_SET_NO":999,"REV_AT_EPOCH":16491,"BSTAR":0.000248572,"MEAN_MOTION_DOT":0.00000114,"MEAN_MOTION_DDOT":0},{"OBJECT_NAME":"ONEWEB-0665","OBJECT_ID":"2023-029AF","EPOCH":"2026-07-15T18:41:16.996416","CLASSIFICATION_TYPE":"U","MEAN_MOTION":13.14501963,"ECCENTRICITY":0.0002027,"INCLINATION":87.8961,"RA_OF_ASC_NODE":284.0248,"ARG_OF_PERICENTER":109.9625,"MEAN_ANOMALY":250.1723,"EPHEMERIS_TYPE":0,"NORAD_CAT_ID":55825,"ELEMENT_SET_NO":999,"REV_AT_EPOCH":16316,"BSTAR":0.00059358034,"MEAN_MOTION_DOT":0.00000233,"MEAN_MOTION_DDOT":0},{"OBJECT_NAME":"ONEWEB-0666","OBJECT_ID":"2023-029AG","EPOCH":"2026-07-15T17:52:04.856160","CLASSIFICATION_TYPE":"U","MEAN_MOTION":13.20773101,"ECCENTRICITY":0.00025044,"INCLINATION":87.9177,"RA_OF_ASC_NODE":268.779,"ARG_OF_PERICENTER":84.3849,"MEAN_ANOMALY":275.757,"EPHEMERIS_TYPE":0,"NORAD_CAT_ID":55826,"ELEMENT_SET_NO":999,"REV_AT_EPOCH":16492,"BSTAR":0.000051012085,"MEAN_MOTION_DOT":3.4e-7,"MEAN_MOTION_DDOT":0},{"OBJECT_NAME":"ONEWEB-0667","OBJECT_ID":"2023-029AH","EPOCH":"2026-07-15T17:44:48.403104","CLASSIFICATION_TYPE":"U","MEAN_MOTION":13.20773106,"ECCENTRICITY":0.00019993,"INCLINATION":87.9194,"RA_OF_ASC_NODE":268.7422,"ARG_OF_PERICENTER":103.7822,"MEAN_ANOMALY":256.3534,"EPHEMERIS_TYPE":0,"NORAD_CAT_ID":55827,"ELEMENT_SET_NO":999,"REV_AT_EPOCH":16491,"BSTAR":-0.00011654848,"MEAN_MOTION_DOT":-3.4e-7,"MEAN_MOTION_DDOT":0},{"OBJECT_NAME":"ONEWEB-0669","OBJECT_ID":"2023-029AJ","EPOCH":"2026-07-15T17:37:32.097792","CLASSIFICATION_TYPE":"U","MEAN_MOTION":13.20769702,"ECCENTRICITY":0.0001665,"INCLINATION":87.9187,"RA_OF_ASC_NODE":268.7527,"ARG_OF_PERICENTER":87.3404,"MEAN_ANOMALY":272.792,"EPHEMERIS_TYPE":0,"NORAD_CAT_ID":55828,"ELEMENT_SET_NO":999,"REV_AT_EPOCH":16491,"BSTAR":-0.00010907906,"MEAN_MOTION_DOT":-3.1e-7,"MEAN_MOTION_DDOT":0},{"OBJECT_NAME":"ONEWEB-0670","OBJECT_ID":"2023-029AK","EPOCH":"2026-07-15T18:09:18.861984","CLASSIFICATION_TYPE":"U","MEAN_MOTION":13.14502014,"ECCENTRICITY":0.00016611,"INCLINATION":87.8956,"RA_OF_ASC_NODE":284.046,"ARG_OF_PERICENTER":106.6543,"MEAN_ANOMALY":253.4769,"EPHEMERIS_TYPE":0,"NORAD_CAT_ID":55829,"ELEMENT_SET_NO":999,"REV_AT_EPOCH":16318,"BSTAR":0.00030399868,"MEAN_MOTION_DOT":0.00000125,"MEAN_MOTION_DDOT":0},{"OBJECT_NAME":"ONEWEB-0671","OBJECT_ID":"2023-029AL","EPOCH":"2026-07-15T19:09:12.881664","CLASSIFICATION_TYPE":"U","MEAN_MOTION":13.1972614,"ECCENTRICITY":0.00019556,"INCLINATION":87.9187,"RA_OF_ASC_NODE":299.2785,"ARG_OF_PERICENTER":105.0384,"MEAN_ANOMALY":255.0965,"EPHEMERIS_TYPE":0,"NORAD_CAT_ID":55830,"ELEMENT_SET_NO":999,"REV_AT_EPOCH":16267,"BSTAR":-0.000086612935,"MEAN_MOTION_DOT":-2.2e-7,"MEAN_MOTION_DDOT":0},{"OBJECT_NAME":"ONEWEB-0672","OBJECT_ID":"2023-029AM","EPOCH":"2026-07-15T17:30:16.585632","CLASSIFICATION_TYPE":"U","MEAN_MOTION":13.20769748,"ECCENTRICITY":0.00020725,"INCLINATION":87.9186,"RA_OF_ASC_NODE":268.7473,"ARG_OF_PERICENTER":92.3451,"MEAN_ANOMALY":267.7919,"EPHEMERIS_TYPE":0,"NORAD_CAT_ID":55831,"ELEMENT_SET_NO":999,"REV_AT_EPOCH":16491,"BSTAR":-0.000036229553,"MEAN_MOTION_DOT":-2e-8,"MEAN_MOTION_DDOT":0}]}
